24793,IRIDIUM 7,1997,100.33,-1.0,-,86.4,Inactive,0,LEO,USA,USA,Unknown,Unknown,Unknown,1 24793U 97020B   24220.12131249  .00000751  00000+0  25521-3 0  9996,2 24793  86.3978 308.5036 0002462  92.9994 267.1485 14.35328015426837,14.35328015,0.0002462,LEO
24795,IRIDIUM 5,1997,96.75,-1.0,-,86.39,Inactive,0,LEO,USA,USA,Unknown,Unknown,Unknown,1 24795U 97020D   24220.52005043  .00004872  00000+0  45592-3 0  9992,2 24795  86.3895 227.6279 0120710 178.6201 181.5384 14.88400180438738,14.8840018,0.012071,LEO
24796,IRIDIUM 4,1997,100.26,-1.0,-,86.4,Inactive,0,LEO,USA,USA,Unknown,Unknown,Unknown,1 24796U 97020E   24220.23464176  .00000793  00000+0  26507-3 0  9990,2 24796  86.3971 305.5402 0002326  97.2121 262.9340 14.36257274427390,14.36257274,0.0002326,LEO
24836,IRIDIUM 914,1997,99.99,-1.0,-,86.4,Inactive,0,LEO,Kazakhstan,USA,Unknown,Unknown,Unknown,1 24836U 97030A   24220.19780595  .00000938  00000+0  29110-3 0  9991,2 24836  86.3964 315.0904 0003005 130.1307 230.0156 14.40130950561923,14.4013095,0.0003005,LEO
24841,IRIDIUM 16,1997,100.14,-1.0,-,86.41,Inactive,0,LEO,Kazakhstan,USA,Unknown,Unknown,Unknown,1 24841U 97030F   24220.24852379  .00001016  00000+0  32958-3 0  9995,2 24841  86.4077 337.1748 0003362  55.2301 304.9213 14.38018913421878,14.38018913,0.0003362,LEO
24842,IRIDIUM 911,1997,99.54,-1.0,-,86.45,Inactive,0,LEO,Kazakhstan,USA,Unknown,Unknown,Unknown,1 24842U 97030G   24219.87015847  .00001286  00000+0  34993-3 0  9994,2 24842  86.4502 336.4150 0016237  69.4087 290.8856 14.46694789429621,14.46694789,0.0016237,LEO
24870,IRIDIUM 17,1997,100.2,-1.0,-,86.4,Inactive,0,LEO,USA,USA,Unknown,Unknown,Unknown,1 24870U 97034B   24220.45878524  .00001054  00000+0  34840-3 0  9998,2 24870  86.3987   6.6536 0001598  42.9235 317.2087 14.37108407418510,14.37108407,0.0001598,LEO
24871,IRIDIUM 920,1997,99.94,-1.0,-,86.4,Inactive,0,LEO,USA,USA,Unknown,Unknown,Unknown,1 24871U 97034C   24219.84913197  .00000939  00000+0  28683-3 0  9995,2 24871  86.4017 346.8796 0012947  47.0051 313.2231 14.40826454421306,14.40826454,0.0012947,LEO
